SARSAT 7 (NOAA 15)      
1 25338U 98030A   23236.76220231  .00000230  00000+0  11348-3 0  9994
2 25338  98.6029 264.6363 0011505 111.9259 248.3146 14.26377150315033
GPS BIIR-08             
1 27663U 03005A   23235.13733199  .00000067  00000+0  00000+0 0  9994
2 27663  55.2519 255.8961 0131586  44.6370  28.5129  2.00566729150669
GPS BIIR-11             
1 28190U 04009A   23233.84530497 -.00000056  00000+0  00000+0 0  9996
2 28190  55.7011 317.0063 0093042 137.9855 238.6424  2.00567747142315
GPS BIIR-13             
1 28474U 04045A   23235.30226726 -.00000074  00000+0  00000+0 0  9991
2 28474  55.4424   6.1740 0161936 282.2423 121.3395  2.00579513137780
SARSAT 10 (NOAA 18)     
1 28654U 05018A   23236.75405133  .00000227  00000+0  14566-3 0  9998
2 28654  98.9060 310.8032 0014364 181.8762 178.2359 14.12992771941256
GPS BIIR-14M            
1 28874U 05038A   23233.83967729 -.00000052  00000+0  00000+0 0  9995
2 28874  55.7526 314.4582 0139171 279.3424 114.3305  2.00576418131163
METEOSAT-9 (MSG-2)      
1 28912U 05049B   23236.76233691  .00000131  00000+0  00000+0 0  9996
2 28912   6.9976  63.2317 0001771 177.0217  52.6755  1.00270453 64770
GOES 13                 
1 29155U 06018A   23235.02801069  .00000046  00000+0  00000+0 0  9996
2 29155   1.6809  90.8935 0004203 109.6139 202.0006  1.00270149 63193
GPS BIIR-16M            
1 29601U 06052A   23235.34439153  .00000071  00000+0  00000+0 0  9994
2 29601  55.2724 254.8461 0084184  79.3351 281.6590  2.00577014122819
GPS BIIR-17M            
1 32260U 07047A   23235.15938582 -.00000005  00000+0  00000+0 0  9991
2 32260  53.4594 122.6462 0150885  70.3079 291.3825  2.00552018116192
GPS BIIR-18M            
1 32384U 07062A   23233.48355469 -.00000054  00000+0  00000+0 0  9990
2 32384  55.8845 315.2913 0024961 149.2232 210.8734  2.00558121114900
SARSAT 12 (NOAA 19)     
1 33591U 09005A   23236.73639694  .00000199  00000+0  13149-3 0  9997
2 33591  99.0944 283.7415 0014589  53.2817 306.9692 14.12809016749626
GOES 14                 
1 35491U 09033A   23234.49248917 -.00000057  00000+0  00000+0 0  9996
2 35491   0.4860 100.0391 0004472 357.2366 301.9586  1.00271952 51831
GOES 15                 
1 36411U 10008A   23236.72202130 -.00000327  00000+0  00000+0 0  9998
2 36411   0.4390 275.3756 0003507 293.9156 159.5315  0.99985386 49333
GPS BIIF-2              
1 37753U 11036A   23236.73105510 -.00000067  00000+0  00000+0 0  9996
2 37753  56.7423  11.8783 0127221  56.2589 279.2586  2.00568418 88663
GSAT0101 (GALILEO-PFM)  
1 37846U 11060A   23232.63214153 -.00000077  00000+0  00000+0 0  9996
2 37846  57.1080   9.6970 0002304  72.9466 287.0814  1.70476050 73667
GSAT0102 (GALILEO-FM2)  
1 37847U 11060B   23235.48300281 -.00000072  00000+0  00000+0 0  9996
2 37847  57.1091   9.6199 0001355   6.9550 349.0089  1.70475344 73702
LUCH 5A                 
1 37951U 11074B   23236.68243910 -.00000044  00000+0  00000+0 0  9994
2 37951   6.1135  89.8826 0005127  49.9104 245.5731  1.00273568 42887
METEOSAT-10 (MSG-3)     
1 38552U 12035B   23234.76103251  .00000004  00000+0  00000+0 0  9995
2 38552   2.3069  57.0937 0000345 120.3754  67.3774  1.00279368 40891
SARSAT 13 (METOP-B)     
1 38771U 12049A   23236.80518791  .00000138  00000+0  82759-4 0  9993
2 38771  98.6733 295.0150 0001199 106.6955   3.5990 14.21505442567291
GPS BIIF-3              
1 38833U 12053A   23234.75307765  .00000054  00000+0  00000+0 0  9997
2 38833  53.5142 185.7068 0141151  51.6874 309.5577  2.00566999 79688
GSAT0103 (GALILEO-FM3)  
1 38857U 12055A   23236.19078294  .00000004  00000+0  00000+0 0  9992
2 38857  55.2779 129.7998 0003127 269.8942  90.1316  1.70473657 67627
GSAT0104 (GALILEO-FM4)  
1 38858U 12055B   23234.98709102  .00000008  00000+0  00000+0 0  9991
2 38858  55.2769 129.8345 0000630 268.1482  91.9095  1.70473956 67570
GPS BIIF-4              
1 39166U 13023A   23234.11644045 -.00000046  00000+0  00000+0 0  9992
2 39166  55.3678 310.6482 0114117  41.7735 319.1564  2.00564331 75215
INSAT-3D                
1 39216U 13038B   23234.79211792 -.00000148  00000+0  00000+0 0  9990
2 39216   0.0909 276.5943 0001344 279.6184 141.9157  1.00271011 36983
GPS BIIF-5              
1 39533U 14008A   23233.11702083  .00000055  00000+0  00000+0 0  9999
2 39533  53.6016 191.3294 0067270 215.8021 143.7240  2.00550956 69554
LUCH 5V                 
1 39727U 14023A   23235.03463522 -.00000261  00000+0  00000+0 0  9996
2 39727   2.5411  77.3158 0002773 114.4233 246.4818  1.00275820552191
GPS BIIF-6              
1 39741U 14026A   23233.89743497 -.00000071  00000+0  00000+0 0  9998
2 39741  56.6950  11.5103 0028715 311.6100  48.1551  2.00558204 67860
GPS BIIF-7              
1 40105U 14045A   23236.47549918 -.00000006  00000+0  00000+0 0  9992
2 40105  54.8089 129.5066 0024427 113.0323 247.2835  2.00576962 66355
GSAT0201 (GALILEO 5)    
1 40128U 14050A   23234.40711256 -.00000068  00000+0  00000+0 0  9998
2 40128  49.9469 315.0851 1609473 139.8832 233.2080  1.85519167 61159
GSAT0202 (GALILEO 6)    
1 40129U 14050B   23235.20553977 -.00000063  00000+0  00000+0 0  9997
2 40129  49.9655 314.1244 1607307 140.7238 232.1374  1.85519813 61363
GPS BIIF-8              
1 40294U 14068A   23234.85812298 -.00000014  00000+0  00000+0 0  9999
2 40294  56.1660  70.9495 0048981  61.4143 299.1436  2.00570978 64549
GLONASS-K 2             
1 40315U 14075A   23234.74569831  .00000098  00000+0  00000+0 0  9992
2 40315  63.6413 226.0986 0020198 211.6651 148.2248  2.13101388 67912
GPS BIIF-9              
1 40534U 15013A   23234.49463807  .00000068  00000+0  00000+0 0  9993
2 40534  53.4702 246.8226 0079811  25.1265 335.2924  2.00555516 61594
GSAT0203 (GALILEO 7)    
1 40544U 15017A   23234.75797804 -.00000073  00000+0  00000+0 0  9991
2 40544  56.9037   9.6141 0002636 220.6603 139.3273  1.70476174 52312
GSAT0204 (GALILEO 8)    
1 40545U 15017B   23235.01156630 -.00000072  00000+0  00000+0 0  9997
2 40545  56.9096   9.6215 0003138 202.1571 157.8369  1.70475794 52326
GPS BIIF-10             
1 40730U 15033A   23233.65902808 -.00000045  00000+0  00000+0 0  9995
2 40730  54.8567 309.2872 0084844  14.0303 346.2707  2.00556072 59348
METEOSAT-11 (MSG-4)     
1 40732U 15034A   23235.30429003  .00000070  00000+0  00000+0 0  9990
2 40732   0.7097  51.6119 0000540 356.2507  42.1900  1.00274076 29690
GSAT0205 (GALILEO 9)    
1 40889U 15045A   23235.95268606  .00000071  00000+0  00000+0 0  9997
2 40889  55.3695 250.0110 0003313 357.2619   2.7777  1.70473446 49487
GSAT0206 (GALILEO 10)   
1 40890U 15045B   23235.00020077  .00000067  00000+0  00000+0 0  9998
2 40890  55.3690 250.0329 0002240 320.9972  39.0255  1.70473513 49493
GPS BIIF-11             
1 41019U 15062A   23234.21071637 -.00000016  00000+0  00000+0 0  9996
2 41019  56.1491  70.8245 0088556 221.0523 138.3425  2.00562192 57179
ELEKTRO-L 2             
1 41105U 15074A   23235.02479980 -.00000109  00000+0  00000+0 0  9991
2 41105   4.0727  83.0451 0002153 119.0923 123.3704  1.00271708 28196
GSAT0209 (GALILEO 12)   
1 41174U 15079A   23234.58532369  .00000009  00000+0  00000+0 0  9991
2 41174  55.2951 129.5508 0003439 325.6502  34.3939  1.70473924 47805
GSAT0208 (GALILEO 11)   
1 41175U 15079B   23234.21836908  .00000010  00000+0  00000+0 0  9990
2 41175  55.2933 129.5591 0002470 337.5471  22.5092  1.70473778 47793
GPS BIIF-12             
1 41328U 16007A   23234.80190132  .00000002  00000+0  00000+0 0  9990
2 41328  55.0130 130.3490 0071687 234.6078 124.7812  2.00550878 55238
GSAT0211 (GALILEO 14)   
1 41549U 16030A   23233.75270403  .00000061  00000+0  00000+0 0  9999
2 41549  55.5168 250.0462 0003848 306.4856  53.5162  1.70473621 45089
GSAT0210 (GALILEO 13)   
1 41550U 16030B   23232.28449079  .00000056  00000+0  00000+0 0  9999
2 41550  55.5168 250.0878 0004195 272.6312  87.3597  1.70473733 45057
INSAT-3DR               
1 41752U 16054A   23235.03053846 -.00000069  00000+0  00000+0 0  9993
2 41752   0.0780  95.8746 0011189 168.6388 151.5503  1.00271963 25483
GSAT0207 (GALILEO 15)   
1 41859U 16069A   23231.94626019  .00000006  00000+0  00000+0 0  9991
2 41859  54.9567 129.6990 0003503 306.9407  53.0937  1.70473928 42027
GSAT0212 (GALILEO 16)   
1 41860U 16069B   23232.97410945  .00000009  00000+0  00000+0 0  9999
2 41860  54.9547 129.6675 0002622 346.7705  13.2905  1.70474106 42078
GSAT0213 (GALILEO 17)   
1 41861U 16069C   23234.51323833  .00000009  00000+0  00000+0 0  9991
2 41861  54.9575 129.6307 0003187 280.2221  79.8081  1.70472742 42093
GSAT0214 (GALILEO 18)   
1 41862U 16069D   23232.31411808  .00000007  00000+0  00000+0 0  9996
2 41862  54.9559 129.6858 0002363 289.8659  70.1758  1.70472610 42057
GOES 16                 
1 41866U 16071A   23236.57738205 -.00000242  00000+0  00000+0 0  9990
2 41866   0.0854 278.8220 0000452 254.1669 292.2533  1.00271157 24799
GSAT-17                 
1 42815U 17040B   23236.75118899 -.00000251  00000+0  00000+0 0  9993
2 42815   0.0597 278.8162 0002574 348.8330  69.0240  1.00270577 22570
GSAT0215 (GALILEO 19)   
1 43055U 17079A   23236.32247788  .00000073  00000+0  00000+0 0  9996
2 43055  55.4919 249.8015 0003769 267.4808  92.5182  1.70474215 35467
GSAT0216 (GALILEO 20)   
1 43056U 17079B   23236.02781840  .00000072  00000+0  00000+0 0  9995
2 43056  55.4925 249.8095 0005309 272.9611  87.0195  1.70474391 35444
GSAT0217 (GALILEO 21)   
1 43057U 17079C   23235.07500038  .00000067  00000+0  00000+0 0  9992
2 43057  55.4931 249.8347 0004683 284.4644  75.5224  1.70474358 35448
GSAT0218 (GALILEO 22)   
1 43058U 17079D   23233.53530137  .00000060  00000+0  00000+0 0  9998
2 43058  55.4916 249.8748 0005764 270.6783  89.2926  1.70474367 35417
GOES 17                 
1 43226U 18022A   23235.50342519 -.00000082  00000+0  00000+0 0  9993
2 43226   0.0217 280.5771 0002158 219.3881 268.0978  1.00270585 20120
GSAT0221 (GALILEO 25)   
1 43564U 18060A   23236.36791073 -.00000071  00000+0  00000+0 0  9996
2 43564  57.2843   9.4959 0002293 253.2125 106.7703  1.70476019 31659
